APSTAR-9                
1 40982U 15059A   25155.61108312 -.00000260  00000+0  00000+0 0  9990
2 40982   0.0212  10.6942 0001182 105.9453 138.6309  1.00270245 35336
TURKSAT 4B              
1 40984U 15060A   25155.59419791  .00000121  00000+0  00000+0 0  9992
2 40984   0.0170 314.6706 0002065 116.2659  86.2650  1.00274918 35316
TIANHUI 1-03            
1 40988U 15061A   25155.55200685  .00063264  00000+0  47722-3 0  9996
2 40988  97.5042 304.0843 0002789 145.0218 215.1228 15.72297152535529
NAVSTAR 75 (USA 265)    
1 41019U 15062A   25155.35713361 -.00000100  00000+0  00000+0 0  9996
2 41019  56.6888  45.4033 0103117 228.3377 130.8084  2.00566971 70256
ZHONGXING-2C            
1 41021U 15063A   25154.76572446 -.00000321  00000+0  00000+0 0  9996
2 41021   0.0366 245.1565 0004339 300.4611  85.9435  1.00272430 35200
YAOGAN-28               
1 41026U 15064A   25155.52943301  .00007687  00000+0  31916-3 0  9994
2 41026  97.2568 299.2343 0015774  76.1193 284.1799 15.23989856533136
GSAT-15                 
1 41028U 15065A   25155.31583534 -.00000252  00000+0  00000+0 0  9990
2 41028   0.0536 126.1996 0003950 302.5473  31.4365  1.00271618 35013
BADR-7 (ARABSAT-6B)     
1 41029U 15065B   25155.30245575  .00000150  00000+0  00000+0 0  9996
2 41029   0.0421 242.6642 0003118 322.6551 182.5795  1.00275118 34973
COSMOS 2510             
1 41032U 15066A   25152.73877862  .00000330  00000+0  00000+0 0  9995
2 41032  63.0781  38.9166 7183871 273.3535  14.3279  2.00237656 69836
LAOSAT 1                
1 41034U 15067A   25155.60838983 -.00000336  00000+0  00000+0 0  9995
2 41034   0.0452 137.1888 0002839 264.4092 199.2012  1.00275200 35076
TELSTAR 12V             
1 41036U 15068A   25155.57980225 -.00000112  00000+0  00000+0 0  9993
2 41036   0.0177 351.9000 0002463  74.9040  20.1900  1.00271834 34845
YAOGAN-29               
1 41038U 15069A   25155.57048042  .00000559  00000+0  76158-4 0  9994
2 41038  98.0345 177.9305 0002283 131.8842 228.2566 14.82631596514669
ELEKTRO-L 2             
1 41105U 15074A   25155.14280954 -.00000113  00000+0  00000+0 0  9993
2 41105   5.7413  75.1888 0001294 228.5946 345.9175  1.00270839 34711
COSMOS 2513             
1 41121U 15075A   25155.45602993 -.00000132  00000+0  00000+0 0  9998
2 41121   0.0763 100.6766 0004078 338.3242  58.5578  1.00272268 34763
VELOX-CI                
1 41166U 15077A   25155.46699452  .00009423  00000+0  24117-3 0  9996
2 41166  14.9820  95.1357 0006277 139.5695 220.5096 15.35247945524330
KENT RIDGE 1            
1 41167U 15077B   25155.43900046  .00003719  00000+0  13447-3 0  9994
2 41167  14.9787 188.4263 0008995 321.1268  38.8407 15.19947996523474
TELEOS-1                
1 41169U 15077D   25154.72134919  .00463011  00000+0  12660-2 0  9995
2 41169  14.9767 329.1587 0004125  26.3653 333.6888 15.91648956525486
DAMPE                   
1 41173U 15078A   25155.56820561  .00001612  00000+0  59111-4 0  9998
2 41173  97.4474 154.7216 0011753 343.5943  16.4915 15.29425894526803
GSAT0209 (GALILEO 12)   
1 41174U 15079A   25154.10539385  .00000022  00000+0  00000+0 0  9992
2 41174  55.6028 111.6710 0005421 325.9827  33.9425  1.70474058 58319
GSAT0208 (GALILEO 11)   
1 41175U 15079B   25154.32539830  .00000022  00000+0  00000+0 0  9992
2 41175  55.6013 111.6624 0004774 327.6746  32.2564  1.70473928 58734
ORBCOMM FM114           
1 41179U 15081A   25155.25796993  .00000604  00000+0  16625-3 0  9997
2 41179  47.0041 347.9177 0002540 283.4939  76.5664 14.58195993502585
ORBCOMM FM110           
1 41182U 15081D   25155.58251579  .00000922  00000+0  23541-3 0  9991
2 41182  47.0032 345.8166 0001297 132.3042 227.7954 14.58008036502504
ORBCOMM FM118           
1 41183U 15081E   25155.01087353  .00001057  00000+0  26227-3 0  9991
2 41183  47.0053 348.8936 0003538  91.5989 268.5302 14.58410208502522
ORBCOMM FM112           
1 41184U 15081F   25155.56412230  .00000969  00000+0  24462-3 0  9998
2 41184  46.9989 254.9303 0001965 277.4013  82.6649 14.58158884503821
ORBCOMM FM113           
1 41185U 15081G   25155.54088123  .00000957  00000+0  24216-3 0  9991
2 41185  47.0007 255.3622 0001731 287.5495  72.5201 14.58166170503808
ORBCOMM FM108           
1 41187U 15081J   25155.42566472  .00000655  00000+0  17729-3 0  9994
2 41187  47.0031 167.2382 0003702 263.8259  96.2205 14.58136526504930
ORBCOMM FM117           
1 41188U 15081K   25155.32331478  .00000335  00000+0  10859-3 0  9992
2 41188  46.9994 166.4871 0004182 268.1779  91.8628 14.58135892504967
ORBCOMM FM116           
1 41189U 15081L   25155.58622126  .00000994  00000+0  25007-3 0  9996
2 41189  47.0021 255.0938 0001379 114.7131 245.3898 14.58160348503815
EXPRESS-AMU1            
1 41191U 15082A   25155.59975560  .00000162  00000+0  00000+0 0  9993
2 41191   0.0150 308.2994 0002850 131.0977  65.9116  1.00273338 34486
GAOFEN-4                
1 41194U 15083A   25155.60387205 -.00000328  00000+0  00000+0 0  9997
2 41194   0.0458 266.3890 0004634 262.8947  47.0812  1.00266558 34740
BELINTERSAT-1           
1 41238U 16001A   25155.59419791  .00000113  00000+0  00000+0 0  9992
2 41238   0.0144 280.4937 0001978 264.3180 333.8761  1.00273771 34456
JASON-3                 
1 41240U 16002A   25155.58883941 -.00000047  00000+0  62287-4 0  9994
2 41240  66.0400 199.6230 0008218 269.7230  90.2844 12.81184892438632
IRNSS-1E                
1 41241U 16003A   25154.67694971 -.00000306  00000+0  00000+0 0  9996
2 41241  32.3988  65.2476 0017734 182.9793 359.6507  1.00274998 34280
EUTELSAT 9B             
1 41310U 16005A   25155.58466755  .00000068  00000+0  00000+0 0  9997
2 41310   0.0709  76.1326 0002135 319.8325  76.7582  1.00272312 34330
NAVSTAR 76 (USA 266)    
1 41328U 16007A   25154.44282309  .00000015  00000+0  00000+0 0  9995
2 41328  55.2955 104.4924 0087902 242.8936 116.1821  2.00570482 68243
COSMOS 2514 [GLONASS-M] 
1 41330U 16008A   25155.06129306 -.00000056  00000+0  00000+0 0  9991
2 41330  65.2402 325.9586 0010026 198.8152 161.1508  2.13102701 72562
SENTINEL-3A             
1 41335U 16011A   25155.56712626  .00000154  00000+0  81869-4 0  9993
2 41335  98.6256 223.3374 0001299 109.1830 250.9491 14.26739672484217
HORYU-4                 
1 41340U 16012D   25155.41154274  .00013272  00000+0  35542-3 0  9994
2 41340  30.9953 166.6912 0006064 358.7907   1.2723 15.36685424511993
SES-9                   
1 41380U 16013A   25155.15183437 -.00000340  00000+0  00000+0 0  9993
2 41380   0.0126 319.8153 0002310 113.3589 342.6228  1.00270881 33968
EUTELSAT 65 WEST A      
1 41382U 16014A   25155.49852144 -.00000270  00000+0  00000+0 0  9993
2 41382   0.0550  20.8600 0002212  41.5017 305.0651  1.00274438 33747
IRNSS-1F                
1 41384U 16015A   25155.58927221  .00000166  00000+0  00000+0 0  9998
2 41384   4.4109 106.4242 0018258 184.5356 206.8535  1.00271742 33880
COSMOS 2515             
1 41394U 16020A   25155.53425428  .00002588  00000+0  18009-3 0  9994
2 41394  97.9746 152.2071 0025375 136.0516 224.2734 15.06187453503537
BEIDOU-2 IGSO-6         
1 41434U 16021A   25155.53110485 -.00000176  00000+0  00000+0 0  9994
2 41434  59.6930  41.8058 0054029 229.5380 267.2125  1.00289971 33698
IRNSS-1G                
1 41469U 16027A   25155.52731937 -.00000327  00000+0  00000+0 0  9996
2 41469   4.2715 107.3291 0005854 349.1091 116.0195  1.00278140 33391
JCSAT-2B                
1 41471U 16028A   25155.54202855 -.00000159  00000+0  00000+0 0  9997
2 41471   0.0177 337.0732 0000957  98.9599 166.3213  1.00272135 33334
YAOGAN-30 01            
1 41473U 16029A   25155.55839783  .00000827  00000+0  12655-3 0  9991
2 41473  97.9547 207.3660 0016369  15.8602 344.3117 14.76266673487957
GSAT0211 (GALILEO 14)   
1 41549U 16030A   25152.68947816 -.00000015  00000+0  00000+0 0  9992
2 41549  55.2196 232.1596 0002191 328.4250  31.6227  1.70474153 56181
GSAT0210 (GALILEO 13)   
1 41550U 16030B   25152.36068854 -.00000014  00000+0  00000+0 0  9994
2 41550  55.2243 232.1674 0002928 205.0100 155.0376  1.70474160 56178
THAICOM 8               
1 41552U 16031A   25155.57753289 -.00000115  00000+0  00000+0 0  9998
2 41552   0.0562  28.6729 0003885  19.5405 131.4649  1.00273741 32934
ZIYUAN 3-2 (ZY 3-2)     
1 41556U 16033A   25155.44861321  .00005018  00000+0  22672-3 0  9996
2 41556  97.4192 232.5658 0008696 175.6154 184.5160 15.21373405500555
COSMOS 2517 (GEO-IK 2)  
1 41579U 16034A   25155.57044173  .00000026  00000+0  60459-4 0  9994
2 41579  99.1930 166.4097 0000977 102.7462 257.3803 13.85905739455324
INTELSAT 31 (IS-31)     
1 41581U 16035A   25154.85005551 -.00000147  00000+0  00000+0 0  9991
2 41581   0.0165 285.2726 0002083 321.8651 216.3633  1.00271552 32893
BEIDOU-2 G7             
1 41586U 16037A   25155.60482773 -.00000347  00000+0  00000+0 0  9999
2 41586   1.7356  68.7967 0010206   8.3380 144.4678  1.00274828  3102
ABS-2A (MONGOLSAT-1)    
1 41588U 16038A   25155.38358416 -.00000078  00000+0  00000+0 0  9994
2 41588   0.0124 317.0161 0002061  54.3286  94.5402  1.00268797 32921
EUTELSAT 117 WEST B     
1 41589U 16038B   25155.48826954 -.00000005  00000+0  00000+0 0  9993
2 41589   0.0044 149.7173 0000482 253.7941 268.4409  1.00274279 32879
BRISAT                  
1 41591U 16039A   25154.74558649 -.00000194  00000+0  00000+0 0  9997
2 41591   0.0200 323.4106 0002132 102.4472 245.4859  1.00268889 32814
ECHOSTAR 18             
1 41592U 16039B   25155.49930336 -.00000275  00000+0  00000+0 0  9998
2 41592   0.0177 339.2406 0001549  95.3649 296.9652  1.00272899 32833
CARTOSAT-2C             
1 41599U 16040A   25155.59424493  .00004830  00000+0  23182-3 0  9990
2 41599  97.4227 215.8444 0011502  14.1075 346.0479 15.19284000496389
SKYSAT-C1               
1 41601U 16040C   25155.09405517  .00010868  00000+0  37878-3 0  9990
2 41601  97.0063 203.0925 0003716  99.2920 260.8742 15.29796972499961
